{"type": "FeatureCollection", "features": [ {"type": "Feature", "properties": {"norad_id": 66819, "name": "STARLINK-35989", "group": "last-30-days", "lat": 42.694739036881394, "lon": -87.12471725717856, "alt_km": 409.3778164596815, "timestamp": "2025-12-25T14:48:23.570338+00:00", "meta": {"OBJECT_NAME": "STARLINK-35989", "OBJECT_ID": "2025-278AE", "EPOCH": "2025-12-25T08:00:01.000224", "MEAN_MOTION": 15.50513902, "ECCENTRICITY": 0.00015781, "INCLINATION": 43.0003, "RA_OF_ASC_NODE": 176.4527, "ARG_OF_PERICENTER": 264.1732, "MEAN_ANOMALY": 46.8529, "EPHEMERIS_TYPE": 0, "CLASSIFICATION_TYPE": "U", "NORAD_CAT_ID": 66819, "ELEMENT_SET_NO": 999, "REV_AT_EPOCH": 498, "BSTAR": 0.0011880521, "MEAN_MOTION_DOT": 0.00069818, "MEAN_MOTION_DDOT": 0}, "tle": {"line1": "1 66819U 25278AE  25359.33334491  .00069818  00000+0  11881-2 0  9990", "line2": "2 66819  43.0003 176.4527 0001578 264.1732  46.8529 15.50513902  4986"}}, "geometry": {"type": "Point", "coordinates": [-87.12471725717856, 42.694739036881394]}}, {"type": "Feature", "properties": {"norad_id": 66820, "name": "KOMPSAT-7", "group": "last-30-days", "lat": 15.139484510969814, "lon": -56.82196619224584, "alt_km": 572.798578747288, "timestamp": "2025-12-25T14:48:23.570347+00:00", "meta": {"OBJECT_NAME": "KOMPSAT-7", "OBJECT_ID": "2025-279A", "EPOCH": "2025-12-25T00:20:09.588768", "MEAN_MOTION": 15.00672429, "ECCENTRICITY": 0.00112449, "INCLINATION": 97.6459, "RA_OF_ASC_NODE": 304.668, "ARG_OF_PERICENTER": 221.971, "MEAN_ANOMALY": 138.0653, "EPHEMERIS_TYPE": 0, "CLASSIFICATION_TYPE": "U", "NORAD_CAT_ID": 66820, "ELEMENT_SET_NO": 999, "REV_AT_EPOCH": 349, "BSTAR": 0.00024414601, "MEAN_MOTION_DOT": 3.034e-05, "MEAN_MOTION_DDOT": 0}, "tle": {"line1": "1 66820U 25279A   25359.01399987  .00003034  00000+0  24415-3 0  9995", "line2": "2 66820  97.6459 304.6680 0011244 221.9710 138.0653 15.00672429  3493"}}, "geometry": {"type": "Point", "coordinates": [-56.82196619224584, 15.139484510969814]}}, {"type": "Feature", "properties": {"norad_id": 66821, "name": "STARLINK-35966", "group": "last-30-days", "lat": -39.20688855744052, "lon": 145.86092997675775, "alt_km": 413.7250849585207, "timestamp": "2025-12-25T14:48:23.570356+00:00", "meta": {"OBJECT_NAME": "STARLINK-35966", "OBJECT_ID": "2025-280A", "EPOCH": "2025-12-25T05:42:37.425024", "MEAN_MOTION": 15.52524102, "ECCENTRICITY": 0.00030529, "INCLINATION": 70.0007, "RA_OF_ASC_NODE": 164.1834, "ARG_OF_PERICENTER": 270.3381, "MEAN_ANOMALY": 89.7456, "EPHEMERIS_TYPE": 0, "CLASSIFICATION_TYPE": "U", "NORAD_CAT_ID": 66821, "ELEMENT_SET_NO": 999, "REV_AT_EPOCH": 487, "BSTAR": 0.0011962277, "MEAN_MOTION_DOT": 0.00074126, "MEAN_MOTION_DDOT": 0}, "tle": {"line1": "1 66821U 25280A   25359.23793316  .00074126  00000+0  11962-2 0  9998", "line2": "2 66821  70.0007 164.1834 0003052 270.3381  89.7456 15.52524102  4875"}}, "geometry": {"type": "Point", "coordinates": [145.86092997675775, -39.20688855744052]}}, {"type": "Feature", "properties": {"norad_id": 66822, "name": "STARLINK-35958", "group": "last-30-days", "lat": -37.38491401442694, "lon": 146.98424236509365, "alt_km": 413.44150749675737, "timestamp": "2025-12-25T14:48:23.570365+00:00", "meta": {"OBJECT_NAME": "STARLINK-35958", "OBJECT_ID": "2025-280B", "EPOCH": "2025-12-25T05:42:06.766848", "MEAN_MOTION": 15.52564981, "ECCENTRICITY": 0.00034459, "INCLINATION": 70.0005, "RA_OF_ASC_NODE": 164.1827, "ARG_OF_PERICENTER": 270.6612, "MEAN_ANOMALY": 89.418, "EPHEMERIS_TYPE": 0, "CLASSIFICATION_TYPE": "U", "NORAD_CAT_ID": 66822, "ELEMENT_SET_NO": 999, "REV_AT_EPOCH": 487, "BSTAR": 0.00085633205, "MEAN_MOTION_DOT": 0.00052955, "MEAN_MOTION_DDOT": 0}, "tle": {"line1": "1 66822U 25280B   25359.23757832  .00052955  00000+0  85633-3 0  9995", "line2": "2 66822  70.0005 164.1827 0003445 270.6612  89.4180 15.52564981  4872"}}, "geometry": {"type": "Point", "coordinates": [146.98424236509365, -37.38491401442694]}}, {"type": "Feature", "properties": {"norad_id": 66823, "name": "STARLINK-35957", "group": "last-30-days", "lat": -35.82368197656506, "lon": 147.898455056846, "alt_km": 413.58203034660073, "timestamp": "2025-12-25T14:48:23.570374+00:00", "meta": {"OBJECT_NAME": "STARLINK-35957", "OBJECT_ID": "2025-280C", "EPOCH": "2025-12-25T01:03:18.818784", "MEAN_MOTION": 15.52521961, "ECCENTRICITY": 0.00026143, "INCLINATION": 70.0006, "RA_OF_ASC_NODE": 164.7101, "ARG_OF_PERICENTER": 286.5043, "MEAN_ANOMALY": 73.5857, "EPHEMERIS_TYPE": 0, "CLASSIFICATION_TYPE": "U", "NORAD_CAT_ID": 66823, "ELEMENT_SET_NO": 999, "REV_AT_EPOCH": 484, "BSTAR": 0.00047516272, "MEAN_MOTION_DOT": 0.00029173, "MEAN_MOTION_DDOT": 0}, "tle": {"line1": "1 66823U 25280C   25359.04396781  .00029173  00000+0  47516-3 0  9991", "line2": "2 66823  70.0006 164.7101 0002614 286.5043  73.5857 15.52521961  4849"}}, "geometry": {"type": "Point", "coordinates": [147.898455056846, -35.82368197656506]}}, {"type": "Feature", "properties": {"norad_id": 66824, "name": "STARLINK-35896", "group": "last-30-days", "lat": -34.02229662503617, "lon": 148.90562567581676, "alt_km": 413.44156894275784, "timestamp": "2025-12-25T14:48:23.570402+00:00", "meta": {"OBJECT_NAME": "STARLINK-35896", "OBJECT_ID": "2025-280D", "EPOCH": "2025-12-25T05:41:09.235680", "MEAN_MOTION": 15.52551437, "ECCENTRICITY": 0.00033036, "INCLINATION": 70.0005, "RA_OF_ASC_NODE": 164.1798, "ARG_OF_PERICENTER": 270.6821, "MEAN_ANOMALY": 89.3988, "EPHEMERIS_TYPE": 0, "CLASSIFICATION_TYPE": "U", "NORAD_CAT_ID": 66824, "ELEMENT_SET_NO": 999, "REV_AT_EPOCH": 487, "BSTAR": 0.0011295252, "MEAN_MOTION_DOT": 0.00070018, "MEAN_MOTION_DDOT": 0}, "tle": {"line1": "1 66824U 25280D   25359.23691245  .00070018  00000+0  11295-2 0  9994", "line2": "2 66824  70.0005 164.1798 0003303 270.6821  89.3988 15.52551437  4873"}}, "geometry": {"type": "Point", "coordinates": [148.90562567581676, -34.02229662503617]}}, {"type": "Feature", "properties": {"norad_id": 66825, "name": "STARLINK-35476", "group": "last-30-days", "lat": -32.27898930920183, "lon": 149.83587913471604, "alt_km": 413.16923783766924, "timestamp": "2025-12-25T14:48:23.570411+00:00", "meta": {"OBJECT_NAME": "STARLINK-35476", "OBJECT_ID": "2025-280E", "EPOCH": "2025-12-25T05:40:39.678240", "MEAN_MOTION": 15.5254939, "ECCENTRICITY": 0.00036074, "INCLINATION": 70.0005, "RA_OF_ASC_NODE": 164.1782, "ARG_OF_PERICENTER": 273.6066, "MEAN_ANOMALY": 86.4708, "EPHEMERIS_TYPE": 0, "CLASSIFICATION_TYPE": "U", "NORAD_CAT_ID": 66825, "ELEMENT_SET_NO": 999, "REV_AT_EPOCH": 487, "BSTAR": 0.0012777046, "MEAN_MOTION_DOT": 0.00079316, "MEAN_MOTION_DDOT": 0}, "tle": {"line1": "1 66825U 25280E   25359.23657035  .00079316  00000+0  12777-2 0  9990", "line2": "2 66825  70.0005 164.1782 0003607 273.6066  86.4708 15.52549390  4871"}}, "geometry": {"type": "Point", "coordinates": [149.83587913471604, -32.27898930920183]}}, {"type": "Feature", "properties": {"norad_id": 66826, "name": "STARLINK-35898", "group": "last-30-days", "lat": -30.511458094175875, "lon": 150.74013020651938, "alt_km": 413.4758817024658, "timestamp": "2025-12-25T14:48:23.570420+00:00", "meta": {"OBJECT_NAME": "STARLINK-35898", "OBJECT_ID": "2025-280F", "EPOCH": "2025-12-25T05:40:09.879744", "MEAN_MOTION": 15.52562885, "ECCENTRICITY": 0.00031232, "INCLINATION": 70.0005, "RA_OF_ASC_NODE": 164.177, "ARG_OF_PERICENTER": 269.6724, "MEAN_ANOMALY": 90.4105, "EPHEMERIS_TYPE": 0, "CLASSIFICATION_TYPE": "U", "NORAD_CAT_ID": 66826, "ELEMENT_SET_NO": 999, "REV_AT_EPOCH": 487, "BSTAR": 0.000739639, "MEAN_MOTION_DOT": 0.00045669, "MEAN_MOTION_DDOT": 0}, "tle": {"line1": "1 66826U 25280F   25359.23622546  .00045669  00000+0  73964-3 0  9990", "line2": "2 66826  70.0005 164.1770 0003123 269.6724  90.4105 15.52562885  4878"}}, "geometry": {"type": "Point", "coordinates": [150.74013020651938, -30.511458094175875]}}, {"type": "Feature", "properties": {"norad_id": 66827, "name": "STARLINK-35959", "group": "last-30-days", "lat": -28.73221460578604, "lon": 151.61396553553507, "alt_km": 413.0899521051888, "timestamp": "2025-12-25T14:48:23.570429+00:00", "meta": {"OBJECT_NAME": "STARLINK-35959", "OBJECT_ID": "2025-280G", "EPOCH": "2025-12-25T05:39:40.339584", "MEAN_MOTION": 15.5256199, "ECCENTRICITY": 0.00033353, "INCLINATION": 70.0005, "RA_OF_ASC_NODE": 164.1751, "ARG_OF_PERICENTER": 273.7111, "MEAN_ANOMALY": 86.3694, "EPHEMERIS_TYPE": 0, "CLASSIFICATION_TYPE": "U", "NORAD_CAT_ID": 66827, "ELEMENT_SET_NO": 999, "REV_AT_EPOCH": 487, "BSTAR": 0.0016485482, "MEAN_MOTION_DOT": 0.00102732, "MEAN_MOTION_DDOT": 0}, "tle": {"line1": "1 66827U 25280G   25359.23588356  .00102732  00000+0  16485-2 0  9990", "line2": "2 66827  70.0005 164.1751 0003335 273.7111  86.3694 15.52561990  4872"}}, "geometry": {"type": "Point", "coordinates": [151.61396553553507, -28.73221460578604]}}, {"type": "Feature", "properties": {"norad_id": 66828, "name": "STARLINK-35982", "group": "last-30-days", "lat": -25.18225054044758, "lon": 153.26686374380722, "alt_km": 413.0861574617784, "timestamp": "2025-12-25T14:48:23.570438+00:00", "meta": {"OBJECT_NAME": "STARLINK-35982", "OBJECT_ID": "2025-280H", "EPOCH": "2025-12-25T05:38:41.067456", "MEAN_MOTION": 15.52564906, "ECCENTRICITY": 0.0003291, "INCLINATION": 70.0004, "RA_OF_ASC_NODE": 164.1728, "ARG_OF_PERICENTER": 269.4394, "MEAN_ANOMALY": 90.6415, "EPHEMERIS_TYPE": 0, "CLASSIFICATION_TYPE": "U", "NORAD_CAT_ID": 66828, "ELEMENT_SET_NO": 999, "REV_AT_EPOCH": 487, "BSTAR": 0.0019012297, "MEAN_MOTION_DOT": 0.00118756, "MEAN_MOTION_DDOT": 0}, "tle": {"line1": "1 66828U 25280H   25359.23519754  .00118756  00000+0  19012-2 0  9999", "line2": "2 66828  70.0004 164.1728 0003291 269.4394  90.6415 15.52564906  4871"}}, "geometry": {"type": "Point", "coordinates": [153.26686374380722, -25.18225054044758]}}]}